{"type": "FeatureCollection", "features": [ {"type": "Feature", "properties": {"norad_id": 42987, "name": "SKYSAT-C11", "group": "resource", "lat": -40.2573837635849, "lon": 139.44043674825755, "alt_km": 430.4119466368684, "timestamp": "2025-12-21T09:37:22.305940+00:00", "meta": {"OBJECT_NAME": "SKYSAT-C11", "OBJECT_ID": "2017-068A", "EPOCH": "2025-12-20T21:23:06.896256", "MEAN_MOTION": 15.4776797, "ECCENTRICITY": 0.0001167, "INCLINATION": 97.4147, "RA_OF_ASC_NODE": 132.5864, "ARG_OF_PERICENTER": 98.9952, "MEAN_ANOMALY": 261.1431, "EPHEMERIS_TYPE": 0, "CLASSIFICATION_TYPE": "U", "NORAD_CAT_ID": 42987, "ELEMENT_SET_NO": 999, "REV_AT_EPOCH": 45557, "BSTAR": 0.00031099, "MEAN_MOTION_DOT": 0.00016039, "MEAN_MOTION_DDOT": 0}, "tle": {"line1": "1 42987U 17068A   25354.89105204  .00016039  00000+0  31099-3 0  9993", "line2": "2 42987  97.4147 132.5864 0001167  98.9952 261.1431 15.47767970455577"}}, "geometry": {"type": "Point", "coordinates": [139.44043674825755, -40.2573837635849]}}, {"type": "Feature", "properties": {"norad_id": 42988, "name": "SKYSAT-C10", "group": "resource", "lat": -78.97692658917781, "lon": 168.31470120899635, "alt_km": 480.019072674957, "timestamp": "2025-12-21T09:37:22.305951+00:00", "meta": {"OBJECT_NAME": "SKYSAT-C10", "OBJECT_ID": "2017-068B", "EPOCH": "2025-12-20T21:26:27.282912", "MEAN_MOTION": 15.32222184, "ECCENTRICITY": 0.0005394, "INCLINATION": 97.4266, "RA_OF_ASC_NODE": 125.7677, "ARG_OF_PERICENTER": 81.245, "MEAN_ANOMALY": 278.9402, "EPHEMERIS_TYPE": 0, "CLASSIFICATION_TYPE": "U", "NORAD_CAT_ID": 42988, "ELEMENT_SET_NO": 999, "REV_AT_EPOCH": 45504, "BSTAR": 0.00024439, "MEAN_MOTION_DOT": 7.528e-05, "MEAN_MOTION_DDOT": 0}, "tle": {"line1": "1 42988U 17068B   25354.89337133  .00007528  00000+0  24439-3 0  9995", "line2": "2 42988  97.4266 125.7677 0005394  81.2450 278.9402 15.32222184455043"}}, "geometry": {"type": "Point", "coordinates": [168.31470120899635, -78.97692658917781]}}, {"type": "Feature", "properties": {"norad_id": 42989, "name": "SKYSAT-C9", "group": "resource", "lat": -69.15277239913785, "lon": -74.2869617460853, "alt_km": 471.53187371343483, "timestamp": "2025-12-21T09:37:22.305961+00:00", "meta": {"OBJECT_NAME": "SKYSAT-C9", "OBJECT_ID": "2017-068C", "EPOCH": "2025-12-21T03:50:47.633856", "MEAN_MOTION": 15.36245357, "ECCENTRICITY": 0.0010442, "INCLINATION": 97.4194, "RA_OF_ASC_NODE": 125.4816, "ARG_OF_PERICENTER": 60.965, "MEAN_ANOMALY": 299.2639, "EPHEMERIS_TYPE": 0, "CLASSIFICATION_TYPE": "U", "NORAD_CAT_ID": 42989, "ELEMENT_SET_NO": 999, "REV_AT_EPOCH": 45537, "BSTAR": 0.00025806, "MEAN_MOTION_DOT": 9.051e-05, "MEAN_MOTION_DDOT": 0}, "tle": {"line1": "1 42989U 17068C   25355.16027354  .00009051  00000+0  25806-3 0  9990", "line2": "2 42989  97.4194 125.4816 0010442  60.9650 299.2639 15.36245357455377"}}, "geometry": {"type": "Point", "coordinates": [-74.2869617460853, -69.15277239913785]}}, {"type": "Feature", "properties": {"norad_id": 42990, "name": "SKYSAT-C8", "group": "resource", "lat": 55.83171919233271, "lon": -43.47737644421316, "alt_km": 462.018798217573, "timestamp": "2025-12-21T09:37:22.305972+00:00", "meta": {"OBJECT_NAME": "SKYSAT-C8", "OBJECT_ID": "2017-068D", "EPOCH": "2025-12-21T02:49:14.051136", "MEAN_MOTION": 15.33089756, "ECCENTRICITY": 0.0001045, "INCLINATION": 97.4289, "RA_OF_ASC_NODE": 125.1551, "ARG_OF_PERICENTER": 299.6918, "MEAN_ANOMALY": 60.422, "EPHEMERIS_TYPE": 0, "CLASSIFICATION_TYPE": "U", "NORAD_CAT_ID": 42990, "ELEMENT_SET_NO": 999, "REV_AT_EPOCH": 45499, "BSTAR": 0.00026037, "MEAN_MOTION_DOT": 8.244e-05, "MEAN_MOTION_DDOT": 0}, "tle": {"line1": "1 42990U 17068D   25355.11752374  .00008244  00000+0  26037-3 0  9994", "line2": "2 42990  97.4289 125.1551 0001045 299.6918  60.4220 15.33089756454991"}}, "geometry": {"type": "Point", "coordinates": [-43.47737644421316, 55.83171919233271]}}, {"type": "Feature", "properties": {"norad_id": 42991, "name": "SKYSAT-C7", "group": "resource", "lat": -39.58340533654674, "lon": 132.66746202256655, "alt_km": 473.2400209684474, "timestamp": "2025-12-21T09:37:22.305982+00:00", "meta": {"OBJECT_NAME": "SKYSAT-C7", "OBJECT_ID": "2017-068E", "EPOCH": "2025-12-20T21:15:36.514656", "MEAN_MOTION": 15.32485179, "ECCENTRICITY": 0.000715, "INCLINATION": 97.4296, "RA_OF_ASC_NODE": 125.9567, "ARG_OF_PERICENTER": 31.5746, "MEAN_ANOMALY": 328.5923, "EPHEMERIS_TYPE": 0, "CLASSIFICATION_TYPE": "U", "NORAD_CAT_ID": 42991, "ELEMENT_SET_NO": 999, "REV_AT_EPOCH": 45502, "BSTAR": 0.00024119, "MEAN_MOTION_DOT": 7.492e-05, "MEAN_MOTION_DDOT": 0}, "tle": {"line1": "1 42991U 17068E   25354.88583929  .00007492  00000+0  24119-3 0  9999", "line2": "2 42991  97.4296 125.9567 0007150  31.5746 328.5923 15.32485179455021"}}, "geometry": {"type": "Point", "coordinates": [132.66746202256655, -39.58340533654674]}}, {"type": "Feature", "properties": {"norad_id": 42992, "name": "SKYSAT-C6", "group": "resource", "lat": 50.297154543984334, "lon": 117.85914205465761, "alt_km": 462.98532351900394, "timestamp": "2025-12-21T09:37:22.305992+00:00", "meta": {"OBJECT_NAME": "SKYSAT-C6", "OBJECT_ID": "2017-068F", "EPOCH": "2025-12-21T03:07:47.398944", "MEAN_MOTION": 15.31646013, "ECCENTRICITY": 0.0004952, "INCLINATION": 97.4327, "RA_OF_ASC_NODE": 126.6341, "ARG_OF_PERICENTER": 60.6728, "MEAN_ANOMALY": 299.5008, "EPHEMERIS_TYPE": 0, "CLASSIFICATION_TYPE": "U", "NORAD_CAT_ID": 42992, "ELEMENT_SET_NO": 999, "REV_AT_EPOCH": 45504, "BSTAR": 0.00024393, "MEAN_MOTION_DOT": 7.378e-05, "MEAN_MOTION_DDOT": 0}, "tle": {"line1": "1 42992U 17068F   25355.13040971  .00007378  00000+0  24393-3 0  9991", "line2": "2 42992  97.4327 126.6341 0004952  60.6728 299.5008 15.31646013455043"}}, "geometry": {"type": "Point", "coordinates": [117.85914205465761, 50.297154543984334]}}, {"type": "Feature", "properties": {"norad_id": 43111, "name": "CARTOSAT-2F", "group": "resource", "lat": 45.32135244432845, "lon": -119.51657206353467, "alt_km": 503.5435016077108, "timestamp": "2025-12-21T09:37:22.306002+00:00", "meta": {"OBJECT_NAME": "CARTOSAT-2F", "OBJECT_ID": "2018-004A", "EPOCH": "2025-12-21T04:17:32.107776", "MEAN_MOTION": 15.19196889, "ECCENTRICITY": 0.0001356, "INCLINATION": 97.4309, "RA_OF_ASC_NODE": 52.6804, "ARG_OF_PERICENTER": 114.2715, "MEAN_ANOMALY": 245.8662, "EPHEMERIS_TYPE": 0, "CLASSIFICATION_TYPE": "U", "NORAD_CAT_ID": 43111, "ELEMENT_SET_NO": 999, "REV_AT_EPOCH": 44030, "BSTAR": 0.00012293, "MEAN_MOTION_DOT": 2.519e-05, "MEAN_MOTION_DDOT": 0}, "tle": {"line1": "1 43111U 18004A   25355.17884384  .00002519  00000+0  12293-3 0  9992", "line2": "2 43111  97.4309  52.6804 0001356 114.2715 245.8662 15.19196889440306"}}, "geometry": {"type": "Point", "coordinates": [-119.51657206353467, 45.32135244432845]}}, {"type": "Feature", "properties": {"norad_id": 43259, "name": "GAOFEN-1 02", "group": "resource", "lat": 6.932795325736066, "lon": 52.20392316249873, "alt_km": 644.3306898895653, "timestamp": "2025-12-21T09:37:22.306013+00:00", "meta": {"OBJECT_NAME": "GAOFEN-1 02", "OBJECT_ID": "2018-031A", "EPOCH": "2025-12-21T04:42:41.928768", "MEAN_MOTION": 14.76431332, "ECCENTRICITY": 0.0002366, "INCLINATION": 98.08, "RA_OF_ASC_NODE": 52.989, "ARG_OF_PERICENTER": 184.2572, "MEAN_ANOMALY": 175.8617, "EPHEMERIS_TYPE": 0, "CLASSIFICATION_TYPE": "U", "NORAD_CAT_ID": 43259, "ELEMENT_SET_NO": 999, "REV_AT_EPOCH": 41643, "BSTAR": 0.00011813, "MEAN_MOTION_DOT": 7.7e-06, "MEAN_MOTION_DDOT": 0}, "tle": {"line1": "1 43259U 18031A   25355.19631862  .00000770  00000+0  11813-3 0  9992", "line2": "2 43259  98.0800  52.9890 0002366 184.2572 175.8617 14.76431332416436"}}, "geometry": {"type": "Point", "coordinates": [52.20392316249873, 6.932795325736066]}}, {"type": "Feature", "properties": {"norad_id": 43260, "name": "GAOFEN-1 03", "group": "resource", "lat": 56.11340831641535, "lon": -114.72181632708546, "alt_km": 636.2571356136796, "timestamp": "2025-12-21T09:37:22.306023+00:00", "meta": {"OBJECT_NAME": "GAOFEN-1 03", "OBJECT_ID": "2018-031B", "EPOCH": "2025-12-21T04:11:17.659680", "MEAN_MOTION": 14.76452351, "ECCENTRICITY": 0.0001701, "INCLINATION": 98.0787, "RA_OF_ASC_NODE": 52.8426, "ARG_OF_PERICENTER": 277.4701, "MEAN_ANOMALY": 82.6315, "EPHEMERIS_TYPE": 0, "CLASSIFICATION_TYPE": "U", "NORAD_CAT_ID": 43260, "ELEMENT_SET_NO": 999, "REV_AT_EPOCH": 41642, "BSTAR": 9.7034e-05, "MEAN_MOTION_DOT": 6.23e-06, "MEAN_MOTION_DDOT": 0}, "tle": {"line1": "1 43260U 18031B   25355.17450995  .00000623  00000+0  97034-4 0  9995", "line2": "2 43260  98.0787  52.8426 0001701 277.4701  82.6315 14.76452351416420"}}, "geometry": {"type": "Point", "coordinates": [-114.72181632708546, 56.11340831641535]}}, {"type": "Feature", "properties": {"norad_id": 43262, "name": "GAOFEN-1 04", "group": "resource", "lat": -70.70257546970095, "lon": -150.6967381959972, "alt_km": 648.3799899519136, "timestamp": "2025-12-21T09:37:22.306033+00:00", "meta": {"OBJECT_NAME": "GAOFEN-1 04", "OBJECT_ID": "2018-031D", "EPOCH": "2025-12-21T05:13:48.269856", "MEAN_MOTION": 14.76422616, "ECCENTRICITY": 6.83e-05, "INCLINATION": 98.0802, "RA_OF_ASC_NODE": 53.057, "ARG_OF_PERICENTER": 55.2268, "MEAN_ANOMALY": 304.9006, "EPHEMERIS_TYPE": 0, "CLASSIFICATION_TYPE": "U", "NORAD_CAT_ID": 43262, "ELEMENT_SET_NO": 999, "REV_AT_EPOCH": 41642, "BSTAR": 0.00010728, "MEAN_MOTION_DOT": 6.94e-06, "MEAN_MOTION_DDOT": 0}, "tle": {"line1": "1 43262U 18031D   25355.21791979  .00000694  00000+0  10728-3 0  9994", "line2": "2 43262  98.0802  53.0570 0000683  55.2268 304.9006 14.76422616416429"}}, "geometry": {"type": "Point", "coordinates": [-150.6967381959972, -70.70257546970095]}}]}